{"type": "FeatureCollection", "features": [ {"type": "Feature", "properties": {"norad_id": 35835, "name": "COSMOS 2251 DEB", "group": "cosmos-2251-debris", "lat": 62.617727099199556, "lon": -83.62913368122793, "alt_km": 796.5873695930641, "timestamp": "2025-12-27T22:26:48.997235+00:00", "meta": {"OBJECT_NAME": "COSMOS 2251 DEB", "OBJECT_ID": "1993-036ATH", "EPOCH": "2025-12-24T22:57:37.404288", "MEAN_MOTION": 13.82930513, "ECCENTRICITY": 0.02914061, "INCLINATION": 74.0631, "RA_OF_ASC_NODE": 247.8975, "ARG_OF_PERICENTER": 26.7225, "MEAN_ANOMALY": 334.8581, "EPHEMERIS_TYPE": 0, "CLASSIFICATION_TYPE": "U", "NORAD_CAT_ID": 35835, "ELEMENT_SET_NO": 999, "REV_AT_EPOCH": 61868, "BSTAR": 0.0014309898, "MEAN_MOTION_DOT": 2.142e-05, "MEAN_MOTION_DDOT": 0}, "tle": {"line1": "1 35835U 93036ATH 25358.95668292  .00002142  00000+0  14310-2 0  9994", "line2": "2 35835  74.0631 247.8975 0291406  26.7225 334.8581 13.82930513618681"}}, "geometry": {"type": "Point", "coordinates": [-83.62913368122793, 62.617727099199556]}}, {"type": "Feature", "properties": {"norad_id": 35836, "name": "COSMOS 2251 DEB", "group": "cosmos-2251-debris", "lat": 60.65048039896544, "lon": 174.02602896057303, "alt_km": 662.2485413788718, "timestamp": "2025-12-27T22:26:48.997245+00:00", "meta": {"OBJECT_NAME": "COSMOS 2251 DEB", "OBJECT_ID": "1993-036ATJ", "EPOCH": "2025-12-25T03:14:36.827808", "MEAN_MOTION": 14.7125789, "ECCENTRICITY": 0.0023385, "INCLINATION": 74.0326, "RA_OF_ASC_NODE": 148.8553, "ARG_OF_PERICENTER": 206.6713, "MEAN_ANOMALY": 153.3258, "EPHEMERIS_TYPE": 0, "CLASSIFICATION_TYPE": "U", "NORAD_CAT_ID": 35836, "ELEMENT_SET_NO": 999, "REV_AT_EPOCH": 63702, "BSTAR": 0.0023898, "MEAN_MOTION_DOT": 0.00014813, "MEAN_MOTION_DDOT": 0}, "tle": {"line1": "1 35836U 93036ATJ 25359.13514847  .00014813  00000+0  23898-2 0  9991", "line2": "2 35836  74.0326 148.8553 0023385 206.6713 153.3258 14.71257890637028"}}, "geometry": {"type": "Point", "coordinates": [174.02602896057303, 60.65048039896544]}}, {"type": "Feature", "properties": {"norad_id": 35837, "name": "COSMOS 2251 DEB", "group": "cosmos-2251-debris", "lat": -50.11101743103075, "lon": 22.806763399840055, "alt_km": 1231.4343864079046, "timestamp": "2025-12-27T22:26:48.997255+00:00", "meta": {"OBJECT_NAME": "COSMOS 2251 DEB", "OBJECT_ID": "1993-036ATK", "EPOCH": "2025-12-27T06:19:54.378048", "MEAN_MOTION": 13.63604043, "ECCENTRICITY": 0.0421713, "INCLINATION": 73.7231, "RA_OF_ASC_NODE": 183.4636, "ARG_OF_PERICENTER": 101.9869, "MEAN_ANOMALY": 72.3522, "EPHEMERIS_TYPE": 0, "CLASSIFICATION_TYPE": "U", "NORAD_CAT_ID": 35837, "ELEMENT_SET_NO": 999, "REV_AT_EPOCH": 58174, "BSTAR": 0.0039935, "MEAN_MOTION_DOT": 5.756e-05, "MEAN_MOTION_DDOT": 0}, "tle": {"line1": "1 35837U 93036ATK 25361.26382382  .00005756  00000+0  39935-2 0  9991", "line2": "2 35837  73.7231 183.4636 0421713 101.9869  72.3522 13.63604043581740"}}, "geometry": {"type": "Point", "coordinates": [22.806763399840055, -50.11101743103075]}}, {"type": "Feature", "properties": {"norad_id": 35839, "name": "COSMOS 2251 DEB", "group": "cosmos-2251-debris", "lat": 73.68976538652369, "lon": 5.43015931400242, "alt_km": 359.4949315961858, "timestamp": "2025-12-27T22:26:48.997265+00:00", "meta": {"OBJECT_NAME": "COSMOS 2251 DEB", "OBJECT_ID": "1993-036ATM", "EPOCH": "2025-12-26T06:11:03.765408", "MEAN_MOTION": 15.63732504, "ECCENTRICITY": 0.0009884, "INCLINATION": 74.2061, "RA_OF_ASC_NODE": 293.8322, "ARG_OF_PERICENTER": 140.9264, "MEAN_ANOMALY": 219.2673, "EPHEMERIS_TYPE": 0, "CLASSIFICATION_TYPE": "U", "NORAD_CAT_ID": 35839, "ELEMENT_SET_NO": 999, "REV_AT_EPOCH": 88778, "BSTAR": 0.0063044, "MEAN_MOTION_DOT": 0.0063746, "MEAN_MOTION_DDOT": 0}, "tle": {"line1": "1 35839U 93036ATM 25360.25768247  .00637460  00000+0  63044-2 0  9990", "line2": "2 35839  74.2061 293.8322 0009884 140.9264 219.2673 15.63732504887788"}}, "geometry": {"type": "Point", "coordinates": [5.43015931400242, 73.68976538652369]}}, {"type": "Feature", "properties": {"norad_id": 35840, "name": "COSMOS 2251 DEB", "group": "cosmos-2251-debris", "lat": 39.75532083906956, "lon": -63.862179506201194, "alt_km": 789.2605868585388, "timestamp": "2025-12-27T22:26:48.997274+00:00", "meta": {"OBJECT_NAME": "COSMOS 2251 DEB", "OBJECT_ID": "1993-036ATN", "EPOCH": "2025-12-27T01:46:44.685120", "MEAN_MOTION": 14.37961362, "ECCENTRICITY": 0.01159443, "INCLINATION": 73.9309, "RA_OF_ASC_NODE": 131.6067, "ARG_OF_PERICENTER": 29.9722, "MEAN_ANOMALY": 330.8, "EPHEMERIS_TYPE": 0, "CLASSIFICATION_TYPE": "U", "NORAD_CAT_ID": 35840, "ELEMENT_SET_NO": 999, "REV_AT_EPOCH": 85497, "BSTAR": 0.0017351458, "MEAN_MOTION_DOT": 5.646e-05, "MEAN_MOTION_DDOT": 0}, "tle": {"line1": "1 35840U 93036ATN 25361.07412830  .00005646  00000+0  17351-2 0  9992", "line2": "2 35840  73.9309 131.6067 0115944  29.9722 330.8000 14.37961362854971"}}, "geometry": {"type": "Point", "coordinates": [-63.862179506201194, 39.75532083906956]}}, {"type": "Feature", "properties": {"norad_id": 35883, "name": "COSMOS 2251 DEB", "group": "cosmos-2251-debris", "lat": 63.52624019477434, "lon": -173.6848202734222, "alt_km": 683.7985213323736, "timestamp": "2025-12-27T22:26:48.997284+00:00", "meta": {"OBJECT_NAME": "COSMOS 2251 DEB", "OBJECT_ID": "1993-036ATW", "EPOCH": "2025-12-26T09:36:44.445024", "MEAN_MOTION": 14.50635695, "ECCENTRICITY": 0.0082804, "INCLINATION": 74.022, "RA_OF_ASC_NODE": 44.3242, "ARG_OF_PERICENTER": 170.6142, "MEAN_ANOMALY": 209.7345, "EPHEMERIS_TYPE": 0, "CLASSIFICATION_TYPE": "U", "NORAD_CAT_ID": 35883, "ELEMENT_SET_NO": 999, "REV_AT_EPOCH": 62584, "BSTAR": 0.0002311, "MEAN_MOTION_DOT": 9.18e-06, "MEAN_MOTION_DDOT": 0}, "tle": {"line1": "1 35883U 93036ATW 25360.40051441  .00000918  00000+0  23110-3 0  9990", "line2": "2 35883  74.0220  44.3242 0082804 170.6142 209.7345 14.50635695625845"}}, "geometry": {"type": "Point", "coordinates": [-173.6848202734222, 63.52624019477434]}}, {"type": "Feature", "properties": {"norad_id": 35884, "name": "COSMOS 2251 DEB", "group": "cosmos-2251-debris", "lat": -73.95104645370957, "lon": -137.85073648146215, "alt_km": 890.9217492364533, "timestamp": "2025-12-27T22:26:48.997294+00:00", "meta": {"OBJECT_NAME": "COSMOS 2251 DEB", "OBJECT_ID": "1993-036ATX", "EPOCH": "2025-12-23T04:21:24.693984", "MEAN_MOTION": 14.25720371, "ECCENTRICITY": 0.01085787, "INCLINATION": 73.9917, "RA_OF_ASC_NODE": 317.1007, "ARG_OF_PERICENTER": 101.1734, "MEAN_ANOMALY": 260.1642, "EPHEMERIS_TYPE": 0, "CLASSIFICATION_TYPE": "U", "NORAD_CAT_ID": 35884, "ELEMENT_SET_NO": 999, "REV_AT_EPOCH": 22506, "BSTAR": 0.0013065465, "MEAN_MOTION_DOT": 3.275e-05, "MEAN_MOTION_DDOT": 0}, "tle": {"line1": "1 35884U 93036ATX 25357.18153581  .00003275  00000+0  13065-2 0  9996", "line2": "2 35884  73.9917 317.1007 0108578 101.1734 260.1642 14.25720371225069"}}, "geometry": {"type": "Point", "coordinates": [-137.85073648146215, -73.95104645370957]}}, {"type": "Feature", "properties": {"norad_id": 35885, "name": "COSMOS 2251 DEB", "group": "cosmos-2251-debris", "lat": -11.873932857297062, "lon": -96.63443233412002, "alt_km": 753.6046188418904, "timestamp": "2025-12-27T22:26:48.997304+00:00", "meta": {"OBJECT_NAME": "COSMOS 2251 DEB", "OBJECT_ID": "1993-036ATY", "EPOCH": "2025-12-26T11:25:48.817344", "MEAN_MOTION": 14.37545271, "ECCENTRICITY": 0.0023879, "INCLINATION": 74.0284, "RA_OF_ASC_NODE": 269.5032, "ARG_OF_PERICENTER": 347.1364, "MEAN_ANOMALY": 12.9178, "EPHEMERIS_TYPE": 0, "CLASSIFICATION_TYPE": "U", "NORAD_CAT_ID": 35885, "ELEMENT_SET_NO": 999, "REV_AT_EPOCH": 65213, "BSTAR": 0.00029496, "MEAN_MOTION_DOT": 8.61e-06, "MEAN_MOTION_DDOT": 0}, "tle": {"line1": "1 35885U 93036ATY 25360.47625946  .00000861  00000+0  29496-3 0  9996", "line2": "2 35885  74.0284 269.5032 0023879 347.1364  12.9178 14.37545271652134"}}, "geometry": {"type": "Point", "coordinates": [-96.63443233412002, -11.873932857297062]}}, {"type": "Feature", "properties": {"norad_id": 35888, "name": "COSMOS 2251 DEB", "group": "cosmos-2251-debris", "lat": -1.6475540218108786, "lon": -32.72930301424441, "alt_km": 705.3059730069681, "timestamp": "2025-12-27T22:26:48.997313+00:00", "meta": {"OBJECT_NAME": "COSMOS 2251 DEB", "OBJECT_ID": "1993-036AUB", "EPOCH": "2025-12-24T15:25:47.112960", "MEAN_MOTION": 14.58358709, "ECCENTRICITY": 0.00479961, "INCLINATION": 74.034, "RA_OF_ASC_NODE": 334.0069, "ARG_OF_PERICENTER": 102.564, "MEAN_ANOMALY": 258.0899, "EPHEMERIS_TYPE": 0, "CLASSIFICATION_TYPE": "U", "NORAD_CAT_ID": 35888, "ELEMENT_SET_NO": 999, "REV_AT_EPOCH": 86447, "BSTAR": 0.00043220593, "MEAN_MOTION_DOT": 2.004e-05, "MEAN_MOTION_DDOT": 0}, "tle": {"line1": "1 35888U 93036AUB 25358.64290640  .00002004  00000+0  43221-3 0  9997", "line2": "2 35888  74.0340 334.0069 0047996 102.5640 258.0899 14.58358709864470"}}, "geometry": {"type": "Point", "coordinates": [-32.72930301424441, -1.6475540218108786]}}, {"type": "Feature", "properties": {"norad_id": 35890, "name": "COSMOS 2251 DEB", "group": "cosmos-2251-debris", "lat": -0.458691611850231, "lon": -146.48654729726408, "alt_km": 668.455784027944, "timestamp": "2025-12-27T22:26:48.997323+00:00", "meta": {"OBJECT_NAME": "COSMOS 2251 DEB", "OBJECT_ID": "1993-036AUD", "EPOCH": "2025-12-21T00:05:00.914784", "MEAN_MOTION": 14.57585084, "ECCENTRICITY": 0.00541447, "INCLINATION": 73.9362, "RA_OF_ASC_NODE": 226.8978, "ARG_OF_PERICENTER": 350.2956, "MEAN_ANOMALY": 9.7156, "EPHEMERIS_TYPE": 0, "CLASSIFICATION_TYPE": "U", "NORAD_CAT_ID": 35890, "ELEMENT_SET_NO": 999, "REV_AT_EPOCH": 65271, "BSTAR": 0.0010880234, "MEAN_MOTION_DOT": 5.027e-05, "MEAN_MOTION_DDOT": 0}, "tle": {"line1": "1 35890U 93036AUD 25355.00348281  .00005027  00000+0  10880-2 0  9994", "line2": "2 35890  73.9362 226.8978 0054144 350.2956   9.7156 14.57585084652713"}}, "geometry": {"type": "Point", "coordinates": [-146.48654729726408, -0.458691611850231]}}]}